STARLINK-37184          
1 68393U 26063P   26114.25002315  .00044684  00000+0  29927-3 0  9995
2 68393  97.2841 256.3427 0001308  65.6054  79.9787 15.75160144  5780
STARLINK-37157          
1 68394U 26063Q   26112.54687399  .00085054  00000+0  56504-3 0  9994
2 68394  97.2857 254.4622 0001207  69.5888 290.5507 15.75206899  4542
STARLINK-37172          
1 68395U 26063R   26112.47522221  .00145842  00000+0  95879-3 0  9999
2 68395  97.2856 254.4059 0001439  88.8555 271.2875 15.75268484  4539
STARLINK-37190          
1 68396U 26063S   26112.56576291  .00243399  00000+0  12311-2 0  9991
2 68396  97.2851 254.5895 0001259  57.7760 302.3630 15.80908749  4555
STARLINK-37194          
1 68397U 26063T   26114.00003472 -.00092784  00000+0 -62699-3 0  9996
2 68397  97.2844 256.0638 0001403 104.8280  28.1095 15.75225356  5742
STARLINK-37220          
1 68398U 26063U   26112.58887223  .00135265  00000+0  89164-3 0  9998
2 68398  97.2860 254.5589 0001160   3.7602 356.3671 15.75237259  4553
STARLINK-37187          
1 68399U 26063V   26112.05709931  .00204159  00000+0  10382-2 0  9994
2 68399  97.2849 254.0576 0001287  67.7854 292.3551 15.80891691  4470
STARLINK-36235          
1 68400U 26063W   26114.25002315  .00031217  00000+0  20962-3 0  9992
2 68400  97.2843 256.3366 0001311 100.1161  33.4721 15.75165859  5782
STARLINK-37175          
1 68401U 26063X   26112.59840215  .00175732  00000+0  11523-2 0  9990
2 68401  97.2857 254.5451 0001600  25.6121 334.5224 15.75244062  4552
STARLINK-36360          
1 68402U 26063Y   26112.38629193  .00099385  00000+0  65849-3 0  9998
2 68402  97.2842 254.3725 0001833 100.6376 259.5096 15.75223222  4528
STARLINK-37218          
1 68403U 26063Z   26111.29296984  .00265189  00000+0  13375-2 0  9999
2 68403  97.2849 253.2602 0001465  60.6480 299.4934 15.80914660  4354
STARLINK-37188          
1 68404U 26063AA  26112.55974955  .00163036  00000+0  83324-3 0  9991
2 68404  97.2853 254.5980 0001150  54.2642 305.8733 15.80890905  4559
SHIYAN-33               
1 68405U 26064A   26114.26754631  .00004057  00000+0  17298-3 0  9994
2 68405  97.4634 190.0667 0015453 132.7300 227.5241 15.23402605  4286
LPNTSAT-001 (IOD-1)     
1 68408U 26065A   26113.64365341  .00002010  00000+0  10084-3 0  9998
2 68408  97.4089 355.2945 0016698 188.6279 171.4671 15.18357645  3981
LPNTSAT-002 (IOD-2)     
1 68409U 26065B   26113.11534897  .00004436  00000+0  21779-3 0  9992
2 68409  97.4072 354.7751 0013825 184.4710 175.6403 15.18507280  3886
XINZHENGCHENG-01        
1 68412U 26066A   26114.31027922  .00000421  00000+0  41943-4 0  9992
2 68412  84.9636 262.0182 0027619  82.0695 278.3662 14.88357290  3717
